{
  "norad_id": 53062,
  "name": "STARLINK-4311",
  "history": [
    {
      "epoch": "2026-04-14T11:02:30.860160Z",
      "apogee_km": 550.2450467130357,
      "perigee_km": 548.759206673144,
      "latitude_deg": 4.067422631451152e-05,
      "longitude_deg": -82.83987731299561,
      "height_km": 552.5716963173811,
      "semi_major_axis_km": 6927.63912669309,
      "eccentricity": 0.00010724,
      "inclination_deg": 97.6027,
      "raan_deg": 285.4249,
      "arg_perigee_deg": 90.4688,
      "mean_anomaly_deg": 269.6662,
      "mean_motion_rev_day": 15.05652943
    },
    {
      "epoch": "2026-04-15T09:22:18.482880Z",
      "apogee_km": 550.2709613758198,
      "perigee_km": 548.7076732210589,
      "latitude_deg": -4.137092696199488e-05,
      "longitude_deg": -57.78844903534102,
      "height_km": 552.9371753081484,
      "semi_major_axis_km": 6927.626317298439,
      "eccentricity": 0.00011283,
      "inclination_deg": 97.6027,
      "raan_deg": 286.3418,
      "arg_perigee_deg": 119.4345,
      "mean_anomaly_deg": 240.6994,
      "mean_motion_rev_day": 15.05657119
    },
    {
      "epoch": "2026-04-16T18:52:00.865632Z",
      "apogee_km": 550.3004472883586,
      "perigee_km": 548.7403388434395,
      "latitude_deg": -1.8052781728985153e-05,
      "longitude_deg": 159.78476063891088,
      "height_km": 552.705766109925,
      "semi_major_axis_km": 6927.657393065899,
      "eccentricity": 0.0001126,
      "inclination_deg": 97.6025,
      "raan_deg": 287.7172,
      "arg_perigee_deg": 98.9917,
      "mean_anomaly_deg": 261.1437,
      "mean_motion_rev_day": 15.05646988
    },
    {
      "epoch": "2026-04-17T18:47:30.314400Z",
      "apogee_km": 550.4313570183076,
      "perigee_km": 548.5585409972127,
      "latitude_deg": 2.817880790348017e-05,
      "longitude_deg": 160.91169406565123,
      "height_km": 552.6597438134061,
      "semi_major_axis_km": 6927.631949007759,
      "eccentricity": 0.00013517,
      "inclination_deg": 97.6011,
      "raan_deg": 288.6994,
      "arg_perigee_deg": 96.2337,
      "mean_anomaly_deg": 263.9044,
      "mean_motion_rev_day": 15.05655283
    },
    {
      "epoch": "2026-04-18T10:44:29.757696Z",
      "apogee_km": 550.5137474511866,
      "perigee_km": 548.4552739954916,
      "latitude_deg": 2.3378666013102513e-05,
      "longitude_deg": -78.33572232380158,
      "height_km": 552.5979752939149,
      "semi_major_axis_km": 6927.621510723339,
      "eccentricity": 0.00014857,
      "inclination_deg": 97.6029,
      "raan_deg": 289.3547,
      "arg_perigee_deg": 92.8203,
      "mean_anomaly_deg": 267.3194,
      "mean_motion_rev_day": 15.05658686
    },
    {
      "epoch": "2026-04-19T05:52:54.918048Z",
      "apogee_km": 550.4739287138964,
      "perigee_km": 548.6089976716048,
      "latitude_deg": 4.148718476049889e-05,
      "longitude_deg": -5.44532494552863,
      "height_km": 552.6696830815507,
      "semi_major_axis_km": 6927.67846319275,
      "eccentricity": 0.0001346,
      "inclination_deg": 97.6015,
      "raan_deg": 290.136,
      "arg_perigee_deg": 94.0061,
      "mean_anomaly_deg": 266.132,
      "mean_motion_rev_day": 15.05640119
    },
    {
      "epoch": "2026-04-20T08:59:48.752448Z",
      "apogee_km": 550.3859907699125,
      "perigee_km": 548.6848315326297,
      "latitude_deg": 4.9331576332198605e-05,
      "longitude_deg": -52.16540934968586,
      "height_km": 552.4279260879362,
      "semi_major_axis_km": 6927.67241115127,
      "eccentricity": 0.00012278,
      "inclination_deg": 97.5934,
      "raan_deg": 291.2538,
      "arg_perigee_deg": 78.4037,
      "mean_anomaly_deg": 281.7328,
      "mean_motion_rev_day": 15.05642092
    },
    {
      "epoch": "2026-04-21T18:29:30.882912Z",
      "apogee_km": 551.055891522552,
      "perigee_km": 547.9952501987464,
      "latitude_deg": 6.286875797059065e-05,
      "longitude_deg": 165.40194960729534,
      "height_km": 552.6882433475106,
      "semi_major_axis_km": 6927.662570860649,
      "eccentricity": 0.0002209,
      "inclination_deg": 97.584,
      "raan_deg": 292.6223,
      "arg_perigee_deg": 93.7679,
      "mean_anomaly_deg": 266.3801,
      "mean_motion_rev_day": 15.056453
    },
    {
      "epoch": "2026-04-22T18:25:00.748128Z",
      "apogee_km": 551.070007667935,
      "perigee_km": 547.8999278554875,
      "latitude_deg": -2.9006591685484964e-07,
      "longitude_deg": 166.52465380643298,
      "height_km": 552.4148021051367,
      "semi_major_axis_km": 6927.621967761711,
      "eccentricity": 0.0002288,
      "inclination_deg": 97.5825,
      "raan_deg": 293.602,
      "arg_perigee_deg": 85.2172,
      "mean_anomaly_deg": 274.9316,
      "mean_motion_rev_day": 15.05658537
    },
    {
      "epoch": "2026-04-23T11:57:43.262496Z",
      "apogee_km": 551.0665076946325,
      "perigee_km": 547.9812046557263,
      "latitude_deg": 7.397599146609667e-06,
      "longitude_deg": -96.65304527615677,
      "height_km": 552.6035513329404,
      "semi_major_axis_km": 6927.660856175179,
      "eccentricity": 0.00022268,
      "inclination_deg": 97.581,
      "raan_deg": 294.322,
      "arg_perigee_deg": 90.6518,
      "mean_anomaly_deg": 269.4964,
      "mean_motion_rev_day": 15.05645859
    },
    {
      "epoch": "2026-04-24T11:53:13.112160Z",
      "apogee_km": 551.2223177831447,
      "perigee_km": 547.7820521638869,
      "latitude_deg": 7.741263727071495e-05,
      "longitude_deg": -95.52859259497897,
      "height_km": 552.8577132060083,
      "semi_major_axis_km": 6927.6391849735155,
      "eccentricity": 0.0002483,
      "inclination_deg": 97.5756,
      "raan_deg": 295.3034,
      "arg_perigee_deg": 99.8264,
      "mean_anomaly_deg": 260.3244,
      "mean_motion_rev_day": 15.05652924
    }
  ]
}